{
    "links": {
        "self": "http://www.neowsapp.com/rest/v1/neo/3092303?api_key=iIulBulltgU6a56xZRHN4H3l9WmuAYTsLGpBGhQ2"
    },
    "id": "3092303",
    "neo_reference_id": "3092303",
    "name": "(2001 MS3)",
    "designation": "2001 MS3",
    "nasa_jpl_url": "http://ssd.jpl.nasa.gov/sbdb.cgi?sstr=3092303",
    "absolute_magnitude_h": 24.0,
    "estimated_diameter": {
        "kilometers": {
            "estimated_diameter_min": 0.0421264611,
            "estimated_diameter_max": 0.0941976306
        },
        "meters": {
            "estimated_diameter_min": 42.1264610556,
            "estimated_diameter_max": 94.1976305719
        },
        "miles": {
            "estimated_diameter_min": 0.0261761612,
            "estimated_diameter_max": 0.0585316759
        },
        "feet": {
            "estimated_diameter_min": 138.2101784897,
            "estimated_diameter_max": 309.0473542854
        }
    },
    "is_potentially_hazardous_asteroid": false,
    "close_approach_data": [
        {
            "close_approach_date": "2001-06-07",
            "close_approach_date_full": "2001-Jun-07 17:04",
            "epoch_date_close_approach": 991933440000,
            "relative_velocity": {
                "kilometers_per_second": "8.6869546134",
                "kilometers_per_hour": "31273.0366083149",
                "miles_per_hour": "19431.848774761"
            },
            "miss_distance": {
                "astronomical": "0.023206237",
                "lunar": "9.027226193",
                "kilometers": "3471603.62591519",
                "miles": "2157154.464562022"
            },
            "orbiting_body": "Earth"
        }
    ],
    "orbital_data": {
        "orbit_id": "12",
        "orbit_determination_date": "2017-04-06 09:16:19",
        "first_observation_date": "2001-06-15",
        "last_observation_date": "2001-06-28",
        "data_arc_in_days": 13,
        "observations_used": 23,
        "orbit_uncertainty": "8",
        "minimum_orbit_intersection": ".0230103",
        "jupiter_tisserand_invariant": "3.519",
        "epoch_osculation": "2452082.5",
        "eccentricity": ".5354707884580009",
        "semi_major_axis": "2.131657709713946",
        "inclination": "4.391425728340604",
        "ascending_node_longitude": "273.1353656867113",
        "orbital_period": "1136.775305569901",
        "perihelion_distance": ".9902172751708427",
        "perihelion_argument": "319.0994113291954",
        "aphelion_distance": "3.273098144257048",
        "perihelion_time": "2452047.738114245896",
        "mean_anomaly": "11.00857734167936",
        "mean_motion": ".3166852747733827",
        "equinox": "J2000",
        "orbit_class": {
            "orbit_class_type": "APO",
            "orbit_class_description": "Near-Earth asteroid orbits which cross the Earth’s orbit similar to that of 1862 Apollo",
            "orbit_class_range": "a (semi-major axis) > 1.0 AU; q (perihelion) < 1.017 AU"
        }
    },
    "is_sentry_object": false
}